{
  "type": "FeatureCollection",
  "features": [
    {
      "type": "Feature",
      "properties": {
        "norad_id": 38867,
        "name": "INTELSAT 23 (IS-23)",
        "group": "intelsat",
        "lat": 0.025429744034126088,
        "lon": 150.79091468181207,
        "alt_km": 35789.05959342141,
        "timestamp": "2025-12-21T07:34:34.207979+00:00",
        "meta_object_name": "INTELSAT 23 (IS-23)",
        "meta_object_id": "2012-057A",
        "meta_epoch": "2025-12-20T21:32:19.284288",
        "meta_mean_motion": 1.00269471,
        "meta_eccentricity": 6.312e-05,
        "meta_inclination": 0.0145,
        "meta_ra_of_asc_node": 59.1671,
        "meta_arg_of_pericenter": 240.7415,
        "meta_mean_anomaly": 59.9238,
        "meta_ephemeris_type": 0,
        "meta_classification_type": "U",
        "meta_norad_cat_id": 38867,
        "meta_element_set_no": 999,
        "meta_rev_at_epoch": 4816,
        "meta_bstar": 0,
        "meta_mean_motion_dot": -2.61e-06,
        "meta_mean_motion_ddot": 0,
        "tle_line1": "1 38867U 12057A   25354.89744542 -.00000261  00000+0  00000+0 0  9997",
        "tle_line2": "2 38867   0.0145  59.1671 0000631 240.7415  59.9238  1.00269471 48161"
      },
      "geometry": {
        "type": "Point",
        "coordinates": [
          150.79091468181207,
          0.025429744034126088
        ]
      }
    },
    {
      "type": "Feature",
      "properties": {
        "norad_id": 39360,
        "name": "FM-6",
        "group": "intelsat",
        "lat": 0.020440755125163027,
        "lon": 87.5873083364078,
        "alt_km": 35784.25102041955,
        "timestamp": "2025-12-21T07:34:34.207990+00:00",
        "meta_object_name": "FM-6",
        "meta_object_id": "2013-058A",
        "meta_epoch": "2025-12-20T21:14:21.005376",
        "meta_mean_motion": 1.00274969,
        "meta_eccentricity": 0.00029096,
        "meta_inclination": 0.0116,
        "meta_ra_of_asc_node": 64.5773,
        "meta_arg_of_pericenter": 108.7447,
        "meta_mean_anomaly": 118.8224,
        "meta_ephemeris_type": 0,
        "meta_classification_type": "U",
        "meta_norad_cat_id": 39360,
        "meta_element_set_no": 999,
        "meta_rev_at_epoch": 4428,
        "meta_bstar": 0,
        "meta_mean_motion_dot": 6e-08,
        "meta_mean_motion_ddot": 0,
        "tle_line1": "1 39360U 13058A   25354.88496534  .00000006  00000+0  00000+0 0  9998",
        "tle_line2": "2 39360   0.0116  64.5773 0002909 108.7447 118.8224  1.00274969 44286"
      },
      "geometry": {
        "type": "Point",
        "coordinates": [
          87.5873083364078,
          0.020440755125163027
        ]
      }
    },
    {
      "type": "Feature",
      "properties": {
        "norad_id": 40271,
        "name": "INTELSAT 30 (IS-30)",
        "group": "intelsat",
        "lat": 0.039564519250479525,
        "lon": 108.73387255134533,
        "alt_km": 35779.291760453365,
        "timestamp": "2025-12-21T07:34:34.208000+00:00",
        "meta_object_name": "INTELSAT 30 (IS-30)",
        "meta_object_id": "2014-062A",
        "meta_epoch": "2025-12-20T14:29:23.871264",
        "meta_mean_motion": 1.00273635,
        "meta_eccentricity": 0.00015801,
        "meta_inclination": 0.0137,
        "meta_ra_of_asc_node": 20.9198,
        "meta_arg_of_pericenter": 67.8039,
        "meta_mean_anomaly": 123.013,
        "meta_ephemeris_type": 0,
        "meta_classification_type": "U",
        "meta_norad_cat_id": 40271,
        "meta_element_set_no": 999,
        "meta_rev_at_epoch": 500,
        "meta_bstar": 0,
        "meta_mean_motion_dot": -1.28e-06,
        "meta_mean_motion_ddot": 0,
        "tle_line1": "1 40271U 14062A   25354.60374851 -.00000128  00000+0  00000+0 0  9990",
        "tle_line2": "2 40271   0.0137  20.9198 0001580  67.8039 123.0130  1.00273635  5005"
      },
      "geometry": {
        "type": "Point",
        "coordinates": [
          108.73387255134533,
          0.039564519250479525
        ]
      }
    },
    {
      "type": "Feature",
      "properties": {
        "norad_id": 40333,
        "name": "DIRECTV 14",
        "group": "intelsat",
        "lat": 0.020096257947283327,
        "lon": 104.55131416620584,
        "alt_km": 35785.35517553545,
        "timestamp": "2025-12-21T07:34:34.208010+00:00",
        "meta_object_name": "DIRECTV 14",
        "meta_object_id": "2014-078B",
        "meta_epoch": "2025-12-20T16:10:59.142432",
        "meta_mean_motion": 1.00270571,
        "meta_eccentricity": 2.675e-05,
        "meta_inclination": 0.0061,
        "meta_ra_of_asc_node": 316.1173,
        "meta_arg_of_pericenter": 165.3968,
        "meta_mean_anomaly": 111.5212,
        "meta_ephemeris_type": 0,
        "meta_classification_type": "U",
        "meta_norad_cat_id": 40333,
        "meta_element_set_no": 999,
        "meta_rev_at_epoch": 4025,
        "meta_bstar": 0,
        "meta_mean_motion_dot": -1.02e-06,
        "meta_mean_motion_ddot": 0,
        "tle_line1": "1 40333U 14078B   25354.67429563 -.00000102  00000+0  00000+0 0  9996",
        "tle_line2": "2 40333   0.0061 316.1173 0000267 165.3968 111.5212  1.00270571 40254"
      },
      "geometry": {
        "type": "Point",
        "coordinates": [
          104.55131416620584,
          0.020096257947283327
        ]
      }
    },
    {
      "type": "Feature",
      "properties": {
        "norad_id": 40663,
        "name": "DIRECTV 15",
        "group": "intelsat",
        "lat": 0.05135573694240233,
        "lon": 100.88750635992513,
        "alt_km": 35785.25596616078,
        "timestamp": "2025-12-21T07:34:34.208021+00:00",
        "meta_object_name": "DIRECTV 15",
        "meta_object_id": "2015-026A",
        "meta_epoch": "2025-12-20T21:18:05.647104",
        "meta_mean_motion": 1.00270293,
        "meta_eccentricity": 3.349e-05,
        "meta_inclination": 0.0249,
        "meta_ra_of_asc_node": 16.0818,
        "meta_arg_of_pericenter": 113.146,
        "meta_mean_anomaly": 177.1314,
        "meta_ephemeris_type": 0,
        "meta_classification_type": "U",
        "meta_norad_cat_id": 40663,
        "meta_element_set_no": 999,
        "meta_rev_at_epoch": 3867,
        "meta_bstar": 0,
        "meta_mean_motion_dot": 0,
        "meta_mean_motion_ddot": 0,
        "tle_line1": "1 40663U 15026A   25354.88756536  .00000000  00000+0  00000+0 0  9998",
        "tle_line2": "2 40663   0.0249  16.0818 0000334 113.1460 177.1314  1.00270293 38678"
      },
      "geometry": {
        "type": "Point",
        "coordinates": [
          100.88750635992513,
          0.05135573694240233
        ]
      }
    },
    {
      "type": "Feature",
      "properties": {
        "norad_id": 40664,
        "name": "SKY MEXICO-1",
        "group": "intelsat",
        "lat": 0.030020123998065095,
        "lon": 125.00249007472156,
        "alt_km": 35795.49098272011,
        "timestamp": "2025-12-21T07:34:34.208031+00:00",
        "meta_object_name": "SKY MEXICO-1",
        "meta_object_id": "2015-026B",
        "meta_epoch": "2025-12-20T21:24:57.489120",
        "meta_mean_motion": 1.00271757,
        "meta_eccentricity": 0.00023346,
        "meta_inclination": 0.015,
        "meta_ra_of_asc_node": 346.3571,
        "meta_arg_of_pericenter": 300.1926,
        "meta_mean_anomaly": 45.6499,
        "meta_ephemeris_type": 0,
        "meta_classification_type": "U",
        "meta_norad_cat_id": 40664,
        "meta_element_set_no": 999,
        "meta_rev_at_epoch": 3866,
        "meta_bstar": 0,
        "meta_mean_motion_dot": -2.11e-06,
        "meta_mean_motion_ddot": 0,
        "tle_line1": "1 40664U 15026B   25354.89233205 -.00000211  00000+0  00000+0 0  9998",
        "tle_line2": "2 40664   0.0150 346.3571 0002334 300.1926  45.6499  1.00271757 38660"
      },
      "geometry": {
        "type": "Point",
        "coordinates": [
          125.00249007472156,
          0.030020123998065095
        ]
      }
    },
    {
      "type": "Feature",
      "properties": {
        "norad_id": 40874,
        "name": "INTELSAT 34 (IS-34)",
        "group": "intelsat",
        "lat": 0.011300472112972982,
        "lon": 148.27055343470172,
        "alt_km": 35782.946510137604,
        "timestamp": "2025-12-21T07:34:34.208042+00:00",
        "meta_object_name": "INTELSAT 34 (IS-34)",
        "meta_object_id": "2015-039A",
        "meta_epoch": "2025-12-20T18:06:09.029088",
        "meta_mean_motion": 1.00271507,
        "meta_eccentricity": 7.85e-05,
        "meta_inclination": 0.0154,
        "meta_ra_of_asc_node": 334.6531,
        "meta_arg_of_pericenter": 180.3511,
        "meta_mean_anomaly": 150.6185,
        "meta_ephemeris_type": 0,
        "meta_classification_type": "U",
        "meta_norad_cat_id": 40874,
        "meta_element_set_no": 999,
        "meta_rev_at_epoch": 3783,
        "meta_bstar": 0,
        "meta_mean_motion_dot": -2.62e-06,
        "meta_mean_motion_ddot": 0,
        "tle_line1": "1 40874U 15039A   25354.75427117 -.00000262  00000+0  00000+0 0  9993",
        "tle_line2": "2 40874   0.0154 334.6531 0000785 180.3511 150.6185  1.00271507 37839"
      },
      "geometry": {
        "type": "Point",
        "coordinates": [
          148.27055343470172,
          0.011300472112972982
        ]
      }
    }
  ]
}